STARLINK Z              
1 53909U 22119Z   22274.25001157 -.01388368  53438-3 -49062-2 0  9997
2 53909  53.2190 222.1723 0025851  65.2470 317.2796 15.87874529  1419
STARLINK AA             
1 53910U 22119AA  22274.25001157 -.01282582  46275-3 -45051-2 0  9995
2 53910  53.2190 222.1681 0026845  64.9054 319.8817 15.87931437  1416
STARLINK AB             
1 53911U 22119AB  22274.25001157 -.01274610  45718-3 -44955-2 0  9992
2 53911  53.2190 222.1706 0026800  64.9218 318.4291 15.87850573  1410
STARLINK AC             
1 53912U 22119AC  22274.25001157 -.01249252  44095-3 -44063-2 0  9994
2 53912  53.2190 222.1689 0025649  67.7913 316.6910 15.87897299  1418
STARLINK AD             
1 53913U 22119AD  22274.25001157 -.01258461  44711-3 -44171-2 0  9992
2 53913  53.2193 222.1669 0026600  64.7331 320.5333 15.87953336  1417
STARLINK AE             
1 53914U 22119AE  22274.25001157 -.01254329  44451-3 -43958-2 0  9995
2 53914  53.2193 222.1668 0026879  64.8373 320.6250 15.87970442  1418
STARLINK AF             
1 53915U 22119AF  22274.25001157 -.01276716  45878-3 -44872-2 0  9990
2 53915  53.2191 222.1693 0027145  64.9395 319.1321 15.87904446  1410
STARLINK AG             
1 53916U 22119AG  22274.58334491 -.00340614  46103-4 -12798-2 0  9990
2 53916  53.2183 220.4782 0021874  77.6282  54.6495 15.86543466  1470
STARLINK AH             
1 53917U 22119AH  22274.58334491 -.01283597  45984-3 -47328-2 0  9990
2 53917  53.2187 220.4815 0023920  65.3693  65.7381 15.87089079  1479
STARLINK AJ             
1 53918U 22119AJ  22274.58334491 -.01282206  45919-3 -47166-2 0  9995
2 53918  53.2187 220.4793 0023597  65.1151  67.1989 15.87149188  1470
STARLINK AK             
1 53919U 22119AK  22274.58334491 -.01283517  46010-3 -47263-2 0  9993
2 53919  53.2187 220.4780 0022777  64.9424  67.7464 15.87161302  1472
STARLINK AL             
1 53920U 22119AL  22274.58334491 -.01245930  43604-3 -45691-2 0  9991
2 53920  53.2187 220.4763 0023570  65.5526  68.2232 15.87205808  1476
STARLINK AM             
1 53921U 22119AM  22274.58334491  .00242196  33919-4  54839-3 0  9994
2 53921  53.2246 220.4165 0050609  71.0394  94.4988 15.94736241  1474
STARLINK AN             
1 53922U 22119AN  22274.25001157 -.01261472  44968-3 -43926-2 0  9999
2 53922  53.2191 222.1630 0026822  64.6780 322.9454 15.88101503  1418
STARLINK AP             
1 53923U 22119AP  22274.25001157 -.01251241  44288-3 -43635-2 0  9995
2 53923  53.2191 222.1634 0027100  65.2988 321.9110 15.88057068  1414
STARLINK AQ             
1 53924U 22119AQ  22274.25001157 -.01260176  44903-3 -43814-2 0  9996
2 53924  53.2190 222.1612 0026472  64.9900 323.4480 15.88147679  1416
STARLINK AR             
1 53925U 22119AR  22274.58334491 -.01206858  41122-3 -44010-2 0  9999
2 53925  53.2187 220.4780 0027522  66.0836  66.7475 15.87138774  1470
STARLINK AS             
1 53926U 22119AS  22274.25001157 -.01260561  44936-3 -43769-2 0  9991
2 53926  53.2190 222.1608 0026620  64.9905 323.6407 15.88167375  1419
STARLINK AT             
1 53927U 22119AT  22274.25001157 -.01254141  44503-3 -43604-2 0  9997
2 53927  53.2190 222.1611 0026900  65.4673 322.7276 15.88126932  1411
STARLINK AU             
1 53928U 22119AU  22274.25001157 -.01261541  45006-3 -43759-2 0  9990
2 53928  53.2191 222.1605 0026698  64.7990 324.1004 15.88183890  1415
STARLINK AV             
1 53929U 22119AV  22274.58334491 -.01225962  42349-3 -44910-2 0  9991
2 53929  53.2187 220.4753 0023423  65.7921  68.4689 15.87230072  1471
STARLINK AW             
1 53930U 22119AW  22274.25001157 -.01254084  44536-3 -43376-2 0  9999
2 53930  53.2190 222.1594 0027214  64.9454 324.3914 15.88215195  1412
STARLINK AX             
1 53931U 22119AX  22274.58334491 -.01310218  47881-3 -47658-2 0  9991
2 53931  53.2178 220.4701 0022612  70.5030  65.8114 15.87418900  1473
STARLINK AY             
1 53932U 22119AY  22274.58334491 -.01197066  40590-3 -43633-2 0  9995
2 53932  53.2189 220.4724 0023175  67.1093  68.8750 15.87335304  1472
STARLINK AZ             
1 53933U 22119AZ  22274.25001157 -.01263444  45139-3 -43789-2 0  9990
2 53933  53.2191 222.1598 0026587  64.7639 324.3035 15.88205639  1411
STARLINK BA             
1 53934U 22119BA  22274.25001157 -.01320879  48992-3 -45524-2 0  9996
2 53934  53.2191 222.1582 0026986  64.9921 325.0884 15.88307803  1410
STARLINK BB             
1 53935U 22119BB  22274.25001157 -.01291943  47059-3 -44486-2 0  9995
2 53935  53.2191 222.1564 0027039  65.1079 325.5729 15.88318492  1417
STARLINK BC             
1 53936U 22119BC  22274.25001157 -.01295401  47286-3 -44612-2 0  9992
2 53936  53.2191 222.1578 0027114  65.0562 325.1983 15.88312478  1419
STARLINK BD             
1 53937U 22119BD  22274.25001157 -.01226526  42805-3 -42378-2 0  9994
2 53937  53.2191 222.1562 0025688  67.1315 323.6262 15.88301425  1419
FALCON 9 DEB            
1 53938U 22119BE  22273.60538084  .00664986  21557-3  85180-3 0  9990
2 53938  53.2278 225.3115 0069738  69.2875 291.5614 16.01744064  1749
FALCON 9 DEB            
1 53939U 22119BF  22273.60378948  .00729119  26311-3  93069-3 0  9990
2 53939  53.2265 225.2981 0065312  70.9718 289.8376 16.02364853  1745
FALCON 9 DEB            
1 53940U 22119BG  22273.59996233  .00680888  23254-3  81740-3 0  9998
2 53940  53.2256 225.2679 0063026  66.6717 294.0932 16.03560553  1744
FALCON 9 DEB            
1 53941U 22119BH  22273.59935216  .00733673  27199-3  87423-3 0  9990
2 53941  53.2262 225.2627 0063079  68.1771 292.5957 16.03668291  1748
2022-118C               
1 53942U 22118C   22273.96362350  .00046282  25110-5  57536-3 0  9992
2 53942  97.5255 280.4445 0274445 344.0367  15.2347 15.26384409   912
YAOGAN-36 01A           
1 53943U 22120A   22274.15844328 -.00006501  00000+0 -25659-3 0  9996
2 53943  34.9962 156.5157 0010028 306.5549 189.9763 15.24479027   703
CZ-2D DEB               
1 53944U 22120B   22274.08882236  .00022196  00000+0  87248-3 0  9997
2 53944  34.9983 156.9500 0009904 313.8986 162.0752 15.24738021   690
CZ-2D R/B               
1 53945U 22120C   22274.42841171  .00020574  00000+0  81513-3 0  9996
2 53945  35.0000 154.8226 0009251 307.9057 230.7438 15.24492192   716
YAOGAN-36 01B           
1 53946U 22120D   22274.42916486  .00002370  00000+0  96361-4 0  9991
2 53946  34.9976 154.8296 0007958 310.8600 228.1450 15.24188558   705
YAOGAN-36 01C           
1 53947U 22120E   22274.42683372  .00014326  00000+0  56136-3 0  9996
2 53947  34.9975 154.8096 0009443 321.8865 215.9968 15.24913727   745
2022-121A               
1 53948U 22121A   22274.54975071  .00006334  00000+0  31674-3 0  9991
2 53948  97.4544 295.1215 0011364 250.4159 269.0062 15.17732112   690
2022-121B               
1 53949U 22121B   22274.54757870  .00004484  00000+0  22397-3 0  9993
2 53949  97.4526 295.1192 0010092 255.8585 255.3082 15.17945312   692
2022-121C               
1 53950U 22121C   22274.54677885  .00004480  00000+0  22196-3 0  9995
2 53950  97.4557 295.1224 0011754 262.1386 249.0585 15.18213519   696
SELFIESAT               
1 53951U 22057BA  22273.80927982  .00011547  00000+0  65486-3 0  9999
2 53951  97.5260  27.0142 0011210 156.7848 203.3891 15.13077826 19369
NOAA 1 [-]              
1 04793U 70106A   22273.46050497 -.00000042  00000+0  12341-4 0  9999
2 04793 101.5459 334.5839 0031995 117.9387 253.4657 12.54007715370754
NOAA 2 (ITOS-D) [-]     
1 06235U 72082A   22273.92020707 -.00000031  00000+0  93662-4 0  9992
2 06235 101.9650 256.8501 0003683 232.4453 182.9242 12.53151864285188
NOAA 3 [-]              
1 06920U 73086A   22273.88480569 -.00000034  00000+0  89620-4 0  9991
2 06920 102.2192 255.7714 0006734  94.4822 332.7675 12.40348749213861
NOAA 4 [-]              
1 07529U 74089A   22273.89880206 -.00000024  00000+0  14163-3 0  9992
2 07529 101.9257 253.8857 0008629 263.4752 151.6128 12.53160630189753
NOAA 5 [-]              
1 09057U 76077A   22274.44903097 -.00000022  00000+0  18084-3 0  9999
2 09057 102.1116 241.3514 0009750 306.4229 165.8045 12.37774470 87086
TIROS N [-]             
1 11060U 78096A   22274.15931736  .00000133  00000+0  84969-4 0  9996
2 11060  98.6243 325.0461 0010413 193.2788 166.8115 14.18417156486835
NOAA 6 [-]              
1 11416U 79057A   22274.47666469  .00000225  00000+0  97142-4 0  9991
2 11416  98.6647 285.5011 0009455 310.2360  49.7996 14.33803987256929
NOAA 7 [-]              
1 12553U 81059A   22274.12172543  .00000021  00000+0  32885-4 0  9993
2 12553  98.9883 319.7969 0011682 170.5655 189.5741 14.17345339132982
NOAA 8 [-]              
1 13923U 83022A   22274.23808474  .00000137  00000+0  71795-4 0  9999
2 13923  98.6960 264.4120 0013974 259.8937 100.0668 14.28835211 57776
NOAA 9 [-]              
1 15427U 84123A   22274.20472943  .00000121  00000+0  84626-4 0  9998
2 15427  99.0582 248.3079 0014054 223.4130 148.3057 14.16226318951812
NOAA 10 [-]             
1 16969U 86073A   22273.95877824  .00000149  00000+0  77283-4 0  9995
2 16969  98.5785 258.2184 0012445   8.9004  52.5928 14.28224726876158
NOAA 11 [-]             
1 19531U 88089A   22274.45647196  .00000049  00000+0  46022-4 0  9991
2 19531  98.4351 257.7625 0010194 229.7485 130.2799 14.15324070756069
NOAA 12 [-]             
1 21263U 91032A   22274.51321510  .00000104  00000+0  61390-4 0  9991
2 21263  98.5205 271.3892 0014281  33.2679 326.9396 14.26013163632100
NOAA 13 [-]             
1 22739U 93050A   22274.53272097  .00000121  00000+0  86927-4 0  9991
2 22739  98.5170 249.0994 0010377  44.5285 315.6720 14.12864665502271
NOAA 14 [-]             
1 23455U 94089A   22274.53999085  .00000027  00000+0  35362-4 0  9995
2 23455  98.4432 295.4846 0009914  26.1379 334.0294 14.14210517431942
NOAA 15 [B]             
1 25338U 98030A   22274.49920073  .00000141  00000+0  77306-4 0  9994
2 25338  98.6373 302.6143 0010129 354.8355   5.2719 14.26175800268389
